1 00243U 61015BY  24046.95947194  .00001947  00000-0  13889-2 0  9998
2 00243  66.4661 348.4346 0035983 278.1546  81.5453 13.99191503163932

1 31198U 99025BKC 24046.72599906  .00000148  00000-0  16749-3 0  9993
2 31198  98.5279 210.8940 0204407 340.6983  18.6506 13.75178193535989

1 41428U 00055LH  24045.55789257  .00009392  00000-0  41692-2 0  9999
2 41428  98.8098 143.8984 0019328 136.9301 223.3393 14.23097659412206

1 31959U 99025CNL 24045.90857585  .00012235  00000-0  47385-2 0  9996
2 31959  98.5387 275.6066 0039019 348.6581  11.3718 14.29722208547675

1 14179U 83069J   24046.76718149  .00000058  00000-0  63325-3 0  9992
2 14179  74.0231 163.1396 0131083 213.5847 302.3409 12.26101980817801

1 06921U 73086B   24046.89488139 -.00000035  00000-0  91150-4 0  9997
2 06921 102.3987  57.0575 0014670  20.1590 340.0047 12.37037042284948

1 14179U 83069J   24046.76718149  .00000058  00000-0  63325-3 0  9992
2 14179  74.0231 163.1396 0131083 213.5847 302.3409 12.26101980817801

1 06921U 73086B   24046.89488139 -.00000035  00000-0  91150-4 0  9997
2 06921 102.3987  57.0575 0014670  20.1590 340.0047 12.37037042284948

1 14179U 83069J   24046.76718149  .00000058  00000-0  63325-3 0  9992
2 14179  74.0231 163.1396 0131083 213.5847 302.3409 12.26101980817801

1 06921U 73086B   24046.89488139 -.00000035  00000-0  91150-4 0  9997
2 06921 102.3987  57.0575 0014670  20.1590 340.0047 12.37037042284948

